P/2017 Y3 (Leonard),e,27.5576,153.8430,67.6061,9.831295,0.0319733,0.86965844,49.9599,05/22.0/2022,2000,g 16.5,4.0
# From MPC114601
C/2018 A1 (PANSTARRS),e,53.6133,336.6586,96.1916,25.10468,0.0078356,0.90407010,13.1150,05/22.0/2022,2000,g 12.5,4.0
# From MPEC 2021-P47
C/2018 A3 (ATLAS),e,139.5367,194.2927,86.3580,394.7527,0.0001257,0.99169918,0.0000,01/11.6691/2019,2000,g  8.5,4.0
# From MPC114601
C/2018 A4 (PANSTARRS),e,3.1495,97.6018,355.9707,12.18510,0.0231718,0.80357032,33.9266,05/22.0/2022,2000,g 14.0,4.0
# From MPC109147
P/2018 A5 (PANSTARRS),e,23.5966,87.8022,359.4988,5.630437,0.0737719,0.52290376,125.5303,05/22.0/2022,2000,g 15.0,4.0
# From MPEC 2022-C56
C/2018 A6 (Gibbs),e,77.0553,340.3806,264.3877,15.09671,0.0168028,0.80012499,17.5533,05/22.0/2022,2000,g  9.0,4.0
# From MPC118841
C/2018 B1 (Lemmon),e,162.4199,133.1908,68.3625,8051,0.0000014,0.99936346,0.0000,03/28.2583/2018,2000,g  9.0,4.0
# From MPC114601
P/2018 C1 (Lemmon-Read),e,5.1139,270.3509,235.7056,5.653447,0.0733220,0.53210821,113.5050,05/22.0/2022,2000,g 13.5,4.0
# From MPC114601
C/2018 C2 (Lemmon),h,05/31.8105/2018,34.4626,91.2036,134.0694,1.000246,1.960621,2000,13.0,4.0
# From MPEC 2021-U31
C/2018 DO4 (Lemmon),e,160.4481,251.4073,176.2716,25.40748,0.0076959,0.90507560,7.7627,05/22.0/2022,2000,g 11.0,4.0
# From MPC114602
C/2018 E1 (ATLAS),e,72.5132,146.8605,299.3143,53.85707,0.0024937,0.94994983,3.7286,05/22.0/2022,2000,g 10.5,4.0
# From MPC114602
C/2018 E2 (Barros),e,97.6487,67.1680,277.4452,3461,0.0000048,0.99886778,0.0000,12/23.8951/2017,2000,g 10.5,4.0
# From MPC114602
C/2018 EN4 (NEOWISE),e,81.9241,136.1281,35.0550,17.98159,0.0129259,0.91874518,18.7284,05/22.0/2022,2000,g 15.0,4.0
# From MPC114602
C/2018 EF9 (Lemmon),e,84.6149,172.5524,72.6252,479.7016,0.0000938,0.99674797,0.0000,05/21.8657/2018,2000,g 18.0,2.0
# From MPEC 2021-R75
C/2018 F1 (Grauer),e,46.0768,177.2755,71.6063,253.0559,0.0002448,0.98816022,0.0000,12/12.7336/2018,2000,g 11.5,4.0
# From MPC110084
C/2018 F3 (Johnson),p,08/15.2314/2017,105.5348,293.0113,2.483172,173.0311,2000,13.0,4.0
# From MPEC 2021-W31
C/2018 F4 (PANSTARRS),h,12/03.7492/2019,78.0854,26.5157,263.2294,1.000436,3.442151,2000,11.0,6.0
# From MPEC 2021-Y10
C/2018 F4-A,h,12/03.7374/2019,78.0856,26.5159,263.2262,1.000384,3.442019,2000,11.0,6.0
# From MPEC 2021-W31
C/2018 F4-B,h,12/03.6736/2019,78.0864,26.5155,263.2112,1.000480,3.441801,2000,11.0,6.0
# From MPC114602
P/2018 H2 (PANSTARRS),e,7.3990,68.1643,119.9735,4.385512,0.1073183,0.54141934,169.7752,05/22.0/2022,2000,g 16.6,2.0
# From MPC114602
C/2018 K1 (Weiland),e,164.1917,260.1273,325.2034,30.15678,0.0059515,0.93756512,8.9609,05/22.0/2022,2000,g 14.9,4.0
# From MPEC 2021-R75
C/2018 KJ3 (Lemmon),e,136.6915,91.6318,217.6790,958.1158,0.0000332,0.99621215,0.0000,09/09.9340/2019,2000,g 12.2,2.0
# From MPC114602
P/2018 L1 (PANSTARRS),e,10.5843,268.6264,18.0316,3.652741,0.1411808,0.48223445,181.6660,05/22.0/2022,2000,g 15.0,4.0
# From MPEC 2021-P47
C/2018 L2 (ATLAS),e,67.3067,243.0128,56.3087,261.0711,0.0002337,0.99343227,0.0000,12/02.5363/2018,2000,g 10.0,4.0
# From MPC114603
P/2018 L4 (PANSTARRS),e,26.6239,145.1574,140.6194,4.944002,0.0896574,0.65952557,124.6776,05/22.0/2022,2000,g 17.5,4.0
# From MPC119996
P/2018 L5 (Leonard),e,2.2083,219.0658,93.9249,3.628604,0.1425919,0.36450408,210.6727,05/22.0/2022,2000,g 14.5,4.0
# From MPC117070
C/2018 M1 (Catalina),e,37.3007,339.4093,14.2114,21.45366,0.0099186,0.93923839,13.9978,05/22.0/2022,2000,g 15.5,4.0
# From MPC112393
C/2018 N1 (NEOWISE),e,159.4278,292.4928,354.7062,381.7723,0.0001321,0.99656704,0.0000,08/02.3859/2018,2000,g 15.5,4.0
# From MPEC 2022-K19
C/2018 N2 (ASASSN),h,11/11.1350/2019,77.5446,25.2144,24.4435,1.000529,3.126067,2000,6.0,4.0
# From MPC114603
C/2018 O1 (ATLAS),e,154.0184,87.7260,162.6766,28.05502,0.0066327,0.94438636,9.0133,05/22.0/2022,2000,g 17.0,4.0
# From MPC114603
P/2018 P3 (PANSTARRS),e,8.9126,59.1619,305.9377,3.004885,0.1892180,0.41698579,249.6028,05/22.0/2022,2000,g 14.5,4.0
# From MPC114603
P/2018 P4 (PANSTARRS),e,23.1101,353.0606,8.3530,6.680106,0.0570859,0.45067955,73.6525,05/22.0/2022,2000,g 12.0,4.0
# From MPEC 2021-P47
C/2018 P5 (PANSTARRS),e,7.2485,216.2147,131.8743,12.83174,0.0214425,0.64289054,25.2836,05/22.0/2022,2000,g 11.0,4.0
# From MPC118841
C/2018 R3 (Lemmon),e,69.7255,324.6296,112.7642,1556,0.0000161,0.99917401,0.0000,06/07.5189/2019,2000,g  9.5,4.0
# From MPC112393
C/2018 R4 (Fuls),e,11.6771,298.4899,345.3214,336.9962,0.0001593,0.99489579,0.0000,03/03.1113/2018,2000,g 14.0,4.0
# From MPC114603
C/2018 R5 (Lemmon),e,103.7502,171.1123,178.1379,22.84328,0.0090275,0.84116108,11.0845,05/22.0/2022,2000,g 11.5,4.0
# From MPEC 2022-K19
C/2018 U1 (Lemmon),h,11/03.1626/2021,108.3053,75.4819,180.4748,1.001482,4.993041,2000,5.0,4.0
# From MPC114604
C/2018 V1 (Machholz-Fujikawa-Iwamoto),h,12/02.9024/2018,144.0709,128.9500,88.9699,1.000334,0.388750,2000,12.0,4.0
# From MPC115884
C/2018 V2 (ATLAS),e,159.1675,357.0769,318.9642,25.03766,0.0078671,0.90091171,10.0174,05/22.0/2022,2000,g 15.0,4.0
# From MPC114604
P/2018 VN2 (Leonard),e,18.2584,226.4689,138.8085,4.064120,0.1202969,0.47887966,173.8663,05/22.0/2022,2000,g 15.0,4.0
# From MPEC 2021-P47
A/2018 V3,e,164.9734,308.6727,3.5827,125.7246,0.0006992,0.98932968,0.0000,09/08.8773/2019,2000,g 15.7,2.0
# From MPC114604
C/2018 V4 (Africano),e,69.0155,78.3163,359.9260,203.7427,0.0003389,0.98431760,0.0000,03/01.3959/2019,2000,g 12.5,4.0
# From MPEC 2021-P47
P/2018 V5 (Trujillo-Sheppard),e,10.5890,171.2867,260.6520,8.956535,0.0367700,0.47516869,48.7907,05/22.0/2022,2000,g 12.5,4.0
# From MPEC 2021-P47
C/2018 W1 (Catalina),e,83.3330,233.6305,251.2290,21.67572,0.0097666,0.93725238,10.8049,05/22.0/2022,2000,g 15.5,2.0
# From MPEC 2021-P47
C/2018 W2 (Africano),h,09/05.4312/2019,116.6257,181.8182,158.0184,1.000452,1.458115,2000,9.5,4.0
# From MPC119996
C/2018 X2 (Fitzsimmons),e,23.0695,340.8297,161.9876,141.5642,0.0005852,0.98499541,0.0000,07/08.1878/2019,2000,g 12.0,4.0
# From MPC114604
C/2018 X3 (PANSTARRS),e,43.3898,78.8606,359.7312,12.36937,0.0226560,0.78230403,28.0534,05/22.0/2022,2000,g 14.5,4.0
# From MPC118842
C/2018 Y1 (Iwamoto),e,160.4009,147.5088,357.9586,134.1499,0.0006343,0.99043134,0.0000,02/06.5267/2019,2000,g 11.5,4.0
# From MPC114605
P/2018 Y2 (Africano),e,11.6826,297.2392,162.2579,7.455143,0.0484195,0.47884877,59.8728,05/22.0/2022,2000,g 11.5,4.0
# From MPC114605
P/2019 A1 (PANSTARRS),e,13.7462,312.2885,150.7198,5.118531,0.0851111,0.56865022,112.2940,05/22.0/2022,2000,g 16.0,4.0
# From MPEC 2021-P47
P/2019 A2 (ATLAS),e,14.8599,139.4654,323.9018,5.716764,0.0721072,0.38165742,92.2164,05/22.0/2022,2000,g 10.5,4.0
# From MPEC 2022-H04
P/2019 A3 (PANSTARRS),e,15.3737,31.2920,325.5787,3.145503,0.1766725,0.26601026,245.1080,05/22.0/2022,2000,g 16.0,4.0
# From MPC114605
P/2019 A4 (PANSTARRS),e,13.3062,119.2517,342.6833,2.614128,0.2331920,0.08718696,293.7600,05/22.0/2022,2000,g 15.0,4.0
# From MPEC 2021-P47
C/2019 A5 (PANSTARRS),e,67.5577,146.6245,355.8655,21.51952,0.0098731,0.70638548,10.6597,05/22.0/2022,2000,g  9.5,4.0
# From MPC114605
P/2019 A6 (Lemmon-PANSTARRS),e,33.2460,280.2309,156.1768,5.359019,0.0794467,0.63947999,108.1683,05/22.0/2022,2000,g 16.0,4.0
# From MPC115884
P/2019 A8 (PANSTARRS),e,2.2233,115.7258,65.0878,4.216910,0.1138184,0.26039739,154.8533,05/22.0/2022,2000,g 16.0,4.0
# From MPC118842
C/2019 A9 (PANSTARRS),e,84.1932,278.3889,237.9324,39.22843,0.0040115,0.96352135,4.1355,05/22.0/2022,2000,g 15.0,4.0
# From MPC114606
C/2019 B1 (Africano),e,123.3766,290.4150,174.7970,138.7228,0.0006032,0.98849036,0.0000,03/19.1741/2019,2000,g 16.0,4.0
# From MPC115885
P/2019 B2 (Groeller),e,17.0198,175.7500,0.9812,3.900221,0.1279588,0.36559084,138.3559,05/22.0/2022,2000,g 14.5,4.0
# From MPEC 2022-C56
C/2019 B3 (PANSTARRS),h,01/20.4242/2021,66.5351,358.4373,263.9479,1.001127,6.823907,2000,5.5,4.0
# From MPEC 2021-P47
C/2019 C1 (ATLAS),e,36.0428,212.3871,319.1344,668.5041,0.0000570,0.99015801,0.0000,05/04.8566/2020,2000,g 10.0,4.0
# From MPC118842
C/2019 D1 (Flewelling),e,34.0383,231.6883,70.6145,143.2282,0.0005750,0.98895260,0.0000,05/11.6834/2019,2000,g 13.0,4.0
# From MPEC 2022-J42
C/2019 E3 (ATLAS),h,11/14.1182/2023,84.2977,347.2548,280.6567,1.001529,10.313597,2000,2.5,4.0
# From MPEC 2022-F14
C/2019 F1 (ATLAS-Africano),h,06/23.0284/2021,54.1801,38.7073,251.1794,1.003754,3.596457,2000,5.5,4.0
# From MPEC 2021-P47
C/2019 F2 (ATLAS),e,19.2328,175.5511,11.5415,16.66279,0.0144905,0.86527403,14.2956,05/22.0/2022,2000,g 12.0,4.0
# From MPEC 2021-P47
A/2019 G2,e,159.2092,208.1544,82.6179,523.1149,0.0000824,0.99561851,0.0000,12/09.4556/2019,2000,g 16.5,2.0
# From MPEC 2021-N06
A/2019 G4,h,09/16.0999/2018,138.3757,130.4622,287.8373,1.002064,5.853957,2000,13.0,2.0
# From MPC114607
P/2019 GG21 (PANSTARRS),e,6.0845,340.5676,208.6164,7.472649,0.0482494,0.47218354,53.4284,05/22.0/2022,2000,g 12.0,4.0
# From MPC115885
C/2019 H1 (NEOWISE),e,104.5185,269.2336,19.3489,241.8819,0.0002620,0.99236743,0.0000,04/27.9512/2019,2000,g 15.5,4.0
# From MPC118842
C/2019 J1 (Lemmon),e,24.5476,98.1194,167.7886,68.84866,0.0017253,0.96393732,1.9658,05/22.0/2022,2000,g 12.0,4.0
# From MPEC 2021-R75
C/2019 J2 (Palomar),e,105.2183,25.5411,98.7289,160.9672,0.0004826,0.98928308,0.0000,07/19.9270/2019,2000,g 13.0,4.0
# From MPC117071
C/2019 J3 (ATLAS),h,08/02.2124/2019,131.3875,270.5645,16.6223,1.000663,2.373951,2000,13.5,4.0
# From MPC117071
C/2019 JU6 (ATLAS),e,148.3287,21.7761,94.9637,365.5228,0.0001410,0.99440165,0.0000,06/01.2107/2019,2000,g 14.5,4.0
# From MPEC 2021-P47
C/2019 K1 (ATLAS),h,02/12.9685/2020,87.0975,73.3636,265.7145,1.000007,2.012709,2000,10.0,4.0
# From MPC119997
C/2019 K4 (Ye),e,105.2967,180.1415,139.8103,1313,0.0000207,0.99827614,0.0000,06/15.9490/2019,2000,g 12.5,4.0
# From MPEC 2021-P47
C/2019 K5 (Young),e,15.3190,177.1285,175.0691,164.4691,0.0004673,0.98760867,0.0000,06/23.0642/2019,2000,g 13.0,4.0
# From MPEC 2021-P47
C/2019 K6 (PANSTARRS),e,132.3837,42.9735,187.6326,1898,0.0000119,0.99793099,0.0000,05/20.2416/2020,2000,g 11.5,4.0
